$$SOE
2461295.500000000, A.D. 2026-Sep-12 00:00:00.0000, -1.147990940047598E+08, -2.547438682692897E+08, -5.682201004367843E+06,
2461302.500000000, A.D. 2026-Sep-19 00:00:00.0000, -1.014446760212238E+08, -2.595988961540879E+08, -5.770762667056486E+06,
2461309.500000000, A.D. 2026-Sep-26 00:00:00.0000, -8.786304299319015E+07, -2.638724065240434E+08, -5.846396803532168E+06,
2461316.500000000, A.D. 2026-Oct-03 00:00:00.0000, -7.408334325074111E+07, -2.675510140753271E+08, -5.908849393989995E+06,
2461323.500000000, A.D. 2026-Oct-10 00:00:00.0000, -6.013574209942442E+07, -2.706231928711178E+08, -5.957908147272304E+06,
2461330.500000000, A.D. 2026-Oct-17 00:00:00.0000, -4.605126822221157E+07, -2.730793754895883E+08, -5.993404456391245E+06,
2461337.500000000, A.D. 2026-Oct-24 00:00:00.0000, -3.186164833424797E+07, -2.749120357502274E+08, -6.015214988453090E+06,
2461344.500000000, A.D. 2026-Oct-31 00:00:00.0000, -1.759913218269332E+07, -2.761157534462053E+08, -6.023262890164375E+06,
2461351.500000000, A.D. 2026-Nov-07 00:00:00.0000, -3.296310005389442E+06, -2.766872597167709E+08, -6.017518608309835E+06,
2461358.500000000, A.D. 2026-Nov-14 00:00:00.0000, 1.101407510528872E+07, -2.766254612759329E+08, -5.998000254497707E+06,
2461365.500000000, A.D. 2026-Nov-21 00:00:00.0000, 2.529931535339070E+07, -2.759314423468994E+08, -5.964773285314336E+06,
2461372.500000000, A.D. 2026-Nov-28 00:00:00.0000, 3.952692309902433E+07, -2.746084472847236E+08, -5.917949655293763E+06,
2461379.500000000, A.D. 2026-Dec-05 00:00:00.0000, 5.366481328097881E+07, -2.726618449673815E+08, -5.857686841292217E+06,
2461386.500000000, A.D. 2026-Dec-12 00:00:00.0000, 6.768148092094614E+07, -2.700990727022651E+08, -5.784186520895779E+06,
2461393.500000000, A.D. 2026-Dec-19 00:00:00.0000, 8.154616936802062E+07, -2.669295608932362E+08, -5.697692761047021E+06,
2461400.500000000, A.D. 2026-Dec-26 00:00:00.0000, 9.522902694587810E+07, -2.631646409337797E+08, -5.598489811869487E+06,
2461407.500000000, A.D. 2027-Jan-02 00:00:00.0000, 1.087012503943913E+08, -2.588174384050889E+08, -5.486899589630172E+06,
2461414.500000000, A.D. 2027-Jan-09 00:00:00.0000, 1.219352136865904E+08, -2.539027536710700E+08, -5.363278905426964E+06,
2461421.500000000, A.D. 2027-Jan-16 00:00:00.0000, 1.349045810916357E+08, -2.484369321243392E+08, -5.228016492923528E+06,
2461428.500000000, A.D. 2027-Jan-23 00:00:00.0000, 1.475844037497862E+08, -2.424377264642928E+08, -5.081529895315140E+06,
2461435.500000000, A.D. 2027-Jan-30 00:00:00.0000, 1.599511995505720E+08, -2.359241534133520E+08, -4.924262284892708E+06,
2461442.500000000, A.D. 2027-Feb-06 00:00:00.0000, 1.719830167026382E+08, -2.289163468474601E+08, -4.756679276090562E+06,
2461449.500000000, A.D. 2027-Feb-13 00:00:00.0000, 1.836594808245011E+08, -2.214354083313308E+08, -4.579265637017548E+06,
2461456.500000000, A.D. 2027-Feb-20 00:00:00.0000, 1.949618237718714E+08, -2.135032578983666E+08, -4.392521791252837E+06,
2461463.500000000, A.D. 2027-Feb-27 00:00:00.0000, 2.058728964284350E+08, -2.051424901386793E+08, -4.196960540612981E+06,
2461470.500000000, A.D. 2027-Mar-06 00:00:00.0000, 2.163771695191818E+08, -1.963762353050840E+08, -3.993104163394645E+06,
2461477.500000000, A.D. 2027-Mar-13 00:00:00.0000, 2.264607220467843E+08, -1.872280247901452E+08, -3.781481602842793E+06,
2461484.500000000, A.D. 2027-Mar-20 00:00:00.0000, 2.361112175312827E+08, -1.777216629689586E+08, -3.562625733983286E+06,
2461491.500000000, A.D. 2027-Mar-27 00:00:00.0000, 2.453178696306652E+08, -1.678811068732629E+08, -3.337070790420443E+06,
2461498.500000000, A.D. 2027-Apr-03 00:00:00.0000, 2.540713987482093E+08, -1.577303544274607E+08, -3.105349986626372E+06,
2461505.500000000, A.D. 2027-Apr-10 00:00:00.0000, 2.623639810834047E+08, -1.472933416881695E+08, -2.867993347506516E+06,
2461512.500000000, A.D. 2027-Apr-17 00:00:00.0000, 2.701891915053512E+08, -1.365938493682307E+08, -2.625525752018377E+06,
2461519.500000000, A.D. 2027-Apr-24 00:00:00.0000, 2.775419416165466E+08, -1.256554187969506E+08, -2.378465203245275E+06,
2461526.500000000, A.D. 2027-May-01 00:00:00.0000, 2.844184145047563E+08, -1.145012772188235E+08, -2.127321347538531E+06,
2461533.500000000, A.D. 2027-May-08 00:00:00.0000, 2.908159975918021E+08, -1.031542714734150E+08, -1.872594204301238E+06,
2461540.500000000, A.D. 2027-May-15 00:00:00.0000, 2.967332130852571E+08, -9.163680878481661E+07, -1.614772883308280E+06,
2461547.500000000, A.D. 2027-May-22 00:00:00.0000, 3.021696453639086E+08, -7.997080684541506E+07, -1.354334349231504E+06,
2461554.500000000, A.D. 2027-May-29 00:00:00.0000, 3.071258694430047E+08, -6.817765418406466E+07, -1.091742650888514E+06,
2461561.500000000, A.D. 2027-Jun-05 00:00:00.0000, 3.116033820986412E+08, -5.627817716912522E+07, -8.274484274339862E+05,
2461568.500000000, A.D. 2027-Jun-12 00:00:00.0000, 3.156045342349219E+08, -4.429261267914315E+07, -5.618884579027891E+05,
2461575.500000000, A.D. 2027-Jun-19 00:00:00.0000, 3.191324646455207E+08, -3.224058682760629E+07, -2.954852864835598E+05,
2461582.500000000, A.D. 2027-Jun-26 00:00:00.0000, 3.221910358330579E+08, -2.014109944671325E+07, -2.864695762510318E+04,
2461589.500000000, A.D. 2027-Jul-03 00:00:00.0000, 3.247847723176439E+08, -8.012513768088041E+06, 2.382331399376411E+05,
2461596.500000000, A.D. 2027-Jul-10 00:00:00.0000, 3.269188016973388E+08, 4.127449248839279E+06, 5.047763295607439E+05,
2461603.500000000, A.D. 2027-Jul-17 00:00:00.0000, 3.285987986587412E+08, 1.626171242084781E+07, 7.706186085554492E+05,
2461610.500000000, A.D. 2027-Jul-24 00:00:00.0000, 3.298309321991860E+08, 2.837384010514883E+07, 1.035410506945862E+06,
2461617.500000000, A.D. 2027-Jul-31 00:00:00.0000, 3.306218165233616E+08, 4.044803291806112E+07, 1.298816834351571E+06,
2461624.500000000, A.D. 2027-Aug-07 00:00:00.0000, 3.309784654182278E+08, 5.246912099107079E+07, 1.560516436724458E+06,
2461631.500000000, A.D. 2027-Aug-14 00:00:00.0000, 3.309082477849973E+08, 6.442255591354270E+07, 1.820202163016740E+06,
2461638.500000000, A.D. 2027-Aug-21 00:00:00.0000, 3.304188449029565E+08, 7.629439835819611E+07, 2.077580718349732E+06,
2461645.500000000, A.D. 2027-Aug-28 00:00:00.0000, 3.295182127761415E+08, 8.807130291739529E+07, 2.332372193544179E+06,
2461652.500000000, A.D. 2027-Sep-04 00:00:00.0000, 3.282145482811686E+08, 9.974050295128585E+07, 2.584309589879476E+06,
2461659.500000000, A.D. 2027-Sep-11 00:00:00.0000, 3.265162576114774E+08, 1.112897950552568E+08, 2.833138418705776E+06,
2461666.500000000, A.D. 2027-Sep-18 00:00:00.0000, 3.244319270326013E+08, 1.227075227350643E+08, 3.078616315472983E+06,
2461673.500000000, A.D. 2027-Sep-25 00:00:00.0000, 3.219702960512757E+08, 1.339825594226763E+08, 3.320512645060502E+06,
2461680.500000000, A.D. 2027-Oct-02 00:00:00.0000, 3.191402329427284E+08, 1.451042910452960E+08, 3.558608097424239E+06,
2461687.500000000, A.D. 2027-Oct-09 00:00:00.0000, 3.159507125254729E+08, 1.560625983040088E+08, 3.792694274286069E+06,
2461694.500000000, A.D. 2027-Oct-16 00:00:00.0000, 3.124107961129618E+08, 1.668478387463695E+08, 4.022573259302698E+06,
2461701.500000000, A.D. 2027-Oct-23 00:00:00.0000, 3.085296137693593E+08, 1.774508287466908E+08, 4.248057149631657E+06,
2461708.500000000, A.D. 2027-Oct-30 00:00:00.0000, 3.043163491124026E+08, 1.878628261044427E+08, 4.468967565836400E+06,
2461715.500000000, A.D. 2027-Nov-06 00:00:00.0000, 2.997802253653364E+08, 1.980755144740828E+08, 4.685135340131804E+06,
2461722.500000000, A.D. 2027-Nov-13 00:00:00.0000, 2.949304905464728E+08, 2.080809876317896E+08, 4.896400397500023E+06,
2461729.500000000, A.D. 2027-Nov-20 00:00:00.0000, 2.897764045911375E+08, 2.178717314621925E+08, 5.102611386474356E+06,
2461736.500000000, A.D. 2027-Nov-27 00:00:00.0000, 2.843272299174648E+08, 2.274406066785085E+08, 5.303625153924525E+06,
2461743.500000000, A.D. 2027-Dec-04 00:00:00.0000, 2.785922233077809E+08, 2.367808332300593E+08, 5.499306324911624E+06,
2461750.500000000, A.D. 2027-Dec-11 00:00:00.0000, 2.725806284583031E+08, 2.458859754656617E+08, 5.689526960234538E+06,
2461757.500000000, A.D. 2027-Dec-18 00:00:00.0000, 2.663016693812660E+08, 2.547499277377794E+08, 5.874166239385977E+06,
2461764.500000000, A.D. 2027-Dec-25 00:00:00.0000, 2.597645447251820E+08, 2.633669004624903E+08, 6.053110155245170E+06,
2461771.500000000, A.D. 2028-Jan-01 00:00:00.0000, 2.529784229733237E+08, 2.717314066619735E+08, 6.226251218234628E+06,
$$EOE